STARLINK-1528           
1 47620U 21012A   21254.25001157 -.00011631  00000-0 -76313-3 0  9997
2 47620  53.0546 235.8414 0001742  68.2816  34.2222 15.06401684 32214
STARLINK-1609           
1 47621U 21012B   21254.00001157 -.00002246  00000-0 -13197-3 0  9994
2 47621  53.0538 236.9539 0001675  75.0577 150.9136 15.06385691  3577
STARLINK-1645           
1 47622U 21012C   21254.00001157 -.00037649  00000-0 -25202-2 0  9999
2 47622  53.0532 236.9482 0001203  72.6543 173.3868 15.06426483  3590
STARLINK-1655           
1 47623U 21012D   21254.00001157 -.00034830  00000-0 -23295-2 0  9999
2 47623  53.0532 171.9486 0002200  67.7719 115.7965 15.06419135  3595
STARLINK-1669           
1 47624U 21012E   21254.00001157 -.00019308  00000-0 -12804-2 0  9997
2 47624  53.0536 216.9509 0001670  78.0861 137.9255 15.06411218  3579
STARLINK-1704           
1 47625U 21012F   21254.25001157 -.00010770  00000-0 -70537-3 0  9997
2 47625  53.0537 235.8319 0001653  64.1396  58.4146 15.06391407 32216
STARLINK-1761           
1 47626U 21012G   21254.25001157 -.00005721  00000-0 -36547-3 0  9991
2 47626  53.0526 235.8248 0001633  60.1835 142.3806 15.06401330 32222
STARLINK-1972           
1 47627U 21012H   21254.00001157  .00015168  00000-0  11227-3 0  9997
2 47627  53.0427 153.3238 0003991  10.7957  63.0981 15.73198508  3686
STARLINK-1973           
1 47628U 21012J   21254.00001157 -.00001554  00000-0 -85450-4 0  9994
2 47628  53.0553 236.9570 0001462  76.9232   9.1177 15.06396062  3572
STARLINK-1974           
1 47629U 21012K   21254.25001157 -.00024451  00000-0 -16994-3 0  9999
2 47629  53.0424 152.0826 0004079   1.4916  50.4885 15.73227445 33380
STARLINK-1983           
1 47630U 21012L   21254.25001157  .00013114  00000-0  89823-3 0  9994
2 47630  53.0535 215.8248 0001833  57.2168 320.5026 15.06375184 32493
STARLINK-1985           
1 47631U 21012M   21254.00001157 -.00020953  00000-0 -14499-3 0  9996
2 47631  53.0431 153.3376 0003872   9.6189  61.1491 15.73220178  3685
STARLINK-1992           
1 47632U 21012N   21254.00001157  .00017217  00000-0  12677-3 0  9990
2 47632  53.0429 153.3246 0003842   5.8678  68.6732 15.73205911  3685
STARLINK-2009           
1 47633U 21012P   21254.25001157 -.00005493  00000-0 -35008-3 0  9996
2 47633  53.0522 235.8445 0001527  59.9457 222.6374 15.06403323 32229
STARLINK-2010           
1 47634U 21012Q   21254.25001157 -.00012629  00000-0 -83010-3 0  9992
2 47634  53.0549 235.8419 0001646  63.0973 339.4777 15.06412655 32212
STARLINK-2012           
1 47635U 21012R   21254.25001157  .00055729  00000-0  39828-3 0  9997
2 47635  53.0427 152.0845 0004033   3.1356  50.0177 15.73222287 33387
STARLINK-2013           
1 47636U 21012S   21254.00001157 -.00019849  00000-0 -13164-2 0  9990
2 47636  53.0525 216.9495 0006273 204.0983 351.9290 15.06406331  3571
