[{"OBJECT_NAME":"STARLINK-1528","OBJECT_ID":"2021-012A","EPOCH":"2021-09-11T06:00:00.999648","MEAN_MOTION":15.06401684,"ECCENTRICITY":0.0001742,"INCLINATION":53.0546,"RA_OF_ASC_NODE":235.8414,"ARG_OF_PERICENTER":68.2816,"MEAN_ANOMALY":34.2222,"EPHEMERIS_TYPE":0,"CLASSIFICATION_TYPE":"U","NORAD_CAT_ID":47620,"ELEMENT_SET_NO":999,"REV_AT_EPOCH":3221,"BSTAR":-0.00076313,"MEAN_MOTION_DOT":-0.00011631,"MEAN_MOTION_DDOT":0},{"OBJECT_NAME":"STARLINK-1609","OBJECT_ID":"2021-012B","EPOCH":"2021-09-11T00:00:00.999648","MEAN_MOTION":15.06385691,"ECCENTRICITY":0.0001675,"INCLINATION":53.0538,"RA_OF_ASC_NODE":236.9539,"ARG_OF_PERICENTER":75.0577,"MEAN_ANOMALY":150.9136,"EPHEMERIS_TYPE":0,"CLASSIFICATION_TYPE":"U","NORAD_CAT_ID":47621,"ELEMENT_SET_NO":999,"REV_AT_EPOCH":357,"BSTAR":-0.00013197,"MEAN_MOTION_DOT":-2.246e-5,"MEAN_MOTION_DDOT":0},{"OBJECT_NAME":"STARLINK-1645","OBJECT_ID":"2021-012C","EPOCH":"2021-09-11T00:00:00.999648","MEAN_MOTION":15.06426483,"ECCENTRICITY":0.0001203,"INCLINATION":53.0532,"RA_OF_ASC_NODE":236.9482,"ARG_OF_PERICENTER":72.6543,"MEAN_ANOMALY":173.3868,"EPHEMERIS_TYPE":0,"CLASSIFICATION_TYPE":"U","NORAD_CAT_ID":47622,"ELEMENT_SET_NO":999,"REV_AT_EPOCH":359,"BSTAR":-0.0025202,"MEAN_MOTION_DOT":-0.00037649,"MEAN_MOTION_DDOT":0},{"OBJECT_NAME":"STARLINK-1655","OBJECT_ID":"2021-012D","EPOCH":"2021-09-11T00:00:00.999648","MEAN_MOTION":15.06419135,"ECCENTRICITY":0.00022,"INCLINATION":53.0532,"RA_OF_ASC_NODE":171.9486,"ARG_OF_PERICENTER":67.7719,"MEAN_ANOMALY":115.7965,"EPHEMERIS_TYPE":0,"CLASSIFICATION_TYPE":"U","NORAD_CAT_ID":47623,"ELEMENT_SET_NO":999,"REV_AT_EPOCH":359,"BSTAR":-0.0023295,"MEAN_MOTION_DOT":-0.0003483,"MEAN_MOTION_DDOT":0},{"OBJECT_NAME":"STARLINK-1669","OBJECT_ID":"2021-012E","EPOCH":"2021-09-11T00:00:00.999648","MEAN_MOTION":15.06411218,"ECCENTRICITY":0.000167,"INCLINATION":53.0536,"RA_OF_ASC_NODE":216.9509,"ARG_OF_PERICENTER":78.0861,"MEAN_ANOMALY":137.9255,"EPHEMERIS_TYPE":0,"CLASSIFICATION_TYPE":"U","NORAD_CAT_ID":47624,"ELEMENT_SET_NO":999,"REV_AT_EPOCH":357,"BSTAR":-0.0012804,"MEAN_MOTION_DOT":-0.00019308,"MEAN_MOTION_DDOT":0},{"OBJECT_NAME":"STARLINK-1704","OBJECT_ID":"2021-012F","EPOCH":"2021-09-11T06:00:00.999648","MEAN_MOTION":15.06391407,"ECCENTRICITY":0.0001653,"INCLINATION":53.0537,"RA_OF_ASC_NODE":235.8319,"ARG_OF_PERICENTER":64.1396,"MEAN_ANOMALY":58.4146,"EPHEMERIS_TYPE":0,"CLASSIFICATION_TYPE":"U","NORAD_CAT_ID":47625,"ELEMENT_SET_NO":999,"REV_AT_EPOCH":3221,"BSTAR":-0.00070537,"MEAN_MOTION_DOT":-0.0001077,"MEAN_MOTION_DDOT":0},{"OBJECT_NAME":"STARLINK-1761","OBJECT_ID":"2021-012G","EPOCH":"2021-09-11T06:00:00.999648","MEAN_MOTION":15.0640133,"ECCENTRICITY":0.0001633,"INCLINATION":53.0526,"RA_OF_ASC_NODE":235.8248,"ARG_OF_PERICENTER":60.1835,"MEAN_ANOMALY":142.3806,"EPHEMERIS_TYPE":0,"CLASSIFICATION_TYPE":"U","NORAD_CAT_ID":47626,"ELEMENT_SET_NO":999,"REV_AT_EPOCH":3222,"BSTAR":-0.00036547,"MEAN_MOTION_DOT":-5.721e-5,"MEAN_MOTION_DDOT":0},{"OBJECT_NAME":"STARLINK-1972","OBJECT_ID":"2021-012H","EPOCH":"2021-09-11T00:00:00.999648","MEAN_MOTION":15.73198508,"ECCENTRICITY":0.0003991,"INCLINATION":53.0427,"RA_OF_ASC_NODE":153.3238,"ARG_OF_PERICENTER":10.7957,"MEAN_ANOMALY":63.0981,"EPHEMERIS_TYPE":0,"CLASSIFICATION_TYPE":"U","NORAD_CAT_ID":47627,"ELEMENT_SET_NO":999,"REV_AT_EPOCH":368,"BSTAR":0.00011227,"MEAN_MOTION_DOT":0.00015168,"MEAN_MOTION_DDOT":0},{"OBJECT_NAME":"STARLINK-1973","OBJECT_ID":"2021-012J","EPOCH":"2021-09-11T00:00:00.999648","MEAN_MOTION":15.06396062,"ECCENTRICITY":0.0001462,"INCLINATION":53.0553,"RA_OF_ASC_NODE":236.957,"ARG_OF_PERICENTER":76.9232,"MEAN_ANOMALY":9.1177,"EPHEMERIS_TYPE":0,"CLASSIFICATION_TYPE":"U","NORAD_CAT_ID":47628,"ELEMENT_SET_NO":999,"REV_AT_EPOCH":357,"BSTAR":-8.545e-5,"MEAN_MOTION_DOT":-1.554e-5,"MEAN_MOTION_DDOT":0},{"OBJECT_NAME":"STARLINK-1974","OBJECT_ID":"2021-012K","EPOCH":"2021-09-11T06:00:00.999648","MEAN_MOTION":15.73227445,"ECCENTRICITY":0.0004079,"INCLINATION":53.0424,"RA_OF_ASC_NODE":152.0826,"ARG_OF_PERICENTER":1.4916,"MEAN_ANOMALY":50.4885,"EPHEMERIS_TYPE":0,"CLASSIFICATION_TYPE":"U","NORAD_CAT_ID":47629,"ELEMENT_SET_NO":999,"REV_AT_EPOCH":3338,"BSTAR":-0.00016994,"MEAN_MOTION_DOT":-0.00024451,"MEAN_MOTION_DDOT":0},{"OBJECT_NAME":"STARLINK-1983","OBJECT_ID":"2021-012L","EPOCH":"2021-09-11T06:00:00.999648","MEAN_MOTION":15.06375184,"ECCENTRICITY":0.0001833,"INCLINATION":53.0535,"RA_OF_ASC_NODE":215.8248,"ARG_OF_PERICENTER":57.2168,"MEAN_ANOMALY":320.5026,"EPHEMERIS_TYPE":0,"CLASSIFICATION_TYPE":"U","NORAD_CAT_ID":47630,"ELEMENT_SET_NO":999,"REV_AT_EPOCH":3249,"BSTAR":0.00089823,"MEAN_MOTION_DOT":0.00013114,"MEAN_MOTION_DDOT":0},{"OBJECT_NAME":"STARLINK-1985","OBJECT_ID":"2021-012M","EPOCH":"2021-09-11T00:00:00.999648","MEAN_MOTION":15.73220178,"ECCENTRICITY":0.0003872,"INCLINATION":53.0431,"RA_OF_ASC_NODE":153.3376,"ARG_OF_PERICENTER":9.6189,"MEAN_ANOMALY":61.1491,"EPHEMERIS_TYPE":0,"CLASSIFICATION_TYPE":"U","NORAD_CAT_ID":47631,"ELEMENT_SET_NO":999,"REV_AT_EPOCH":368,"BSTAR":-0.00014499,"MEAN_MOTION_DOT":-0.00020953,"MEAN_MOTION_DDOT":0},{"OBJECT_NAME":"STARLINK-1992","OBJECT_ID":"2021-012N","EPOCH":"2021-09-11T00:00:00.999648","MEAN_MOTION":15.73205911,"ECCENTRICITY":0.0003842,"INCLINATION":53.0429,"RA_OF_ASC_NODE":153.3246,"ARG_OF_PERICENTER":5.8678,"MEAN_ANOMALY":68.6732,"EPHEMERIS_TYPE":0,"CLASSIFICATION_TYPE":"U","NORAD_CAT_ID":47632,"ELEMENT_SET_NO":999,"REV_AT_EPOCH":368,"BSTAR":0.00012677,"MEAN_MOTION_DOT":0.00017217,"MEAN_MOTION_DDOT":0},{"OBJECT_NAME":"STARLINK-2009","OBJECT_ID":"2021-012P","EPOCH":"2021-09-11T06:00:00.999648","MEAN_MOTION":15.06403323,"ECCENTRICITY":0.0001527,"INCLINATION":53.0522,"RA_OF_ASC_NODE":235.8445,"ARG_OF_PERICENTER":59.9457,"MEAN_ANOMALY":222.6374,"EPHEMERIS_TYPE":0,"CLASSIFICATION_TYPE":"U","NORAD_CAT_ID":47633,"ELEMENT_SET_NO":999,"REV_AT_EPOCH":3222,"BSTAR":-0.00035008,"MEAN_MOTION_DOT":-5.493e-5,"MEAN_MOTION_DDOT":0},{"OBJECT_NAME":"STARLINK-2010","OBJECT_ID":"2021-012Q","EPOCH":"2021-09-11T06:00:00.999648","MEAN_MOTION":15.06412655,"ECCENTRICITY":0.0001646,"INCLINATION":53.0549,"RA_OF_ASC_NODE":235.8419,"ARG_OF_PERICENTER":63.0973,"MEAN_ANOMALY":339.4777,"EPHEMERIS_TYPE":0,"CLASSIFICATION_TYPE":"U","NORAD_CAT_ID":47634,"ELEMENT_SET_NO":999,"REV_AT_EPOCH":3221,"BSTAR":-0.0008301,"MEAN_MOTION_DOT":-0.00012629,"MEAN_MOTION_DDOT":0},{"OBJECT_NAME":"STARLINK-2012","OBJECT_ID":"2021-012R","EPOCH":"2021-09-11T06:00:00.999648","MEAN_MOTION":15.73222287,"ECCENTRICITY":0.0004033,"INCLINATION":53.0427,"RA_OF_ASC_NODE":152.0845,"ARG_OF_PERICENTER":3.1356,"MEAN_ANOMALY":50.0177,"EPHEMERIS_TYPE":0,"CLASSIFICATION_TYPE":"U","NORAD_CAT_ID":47635,"ELEMENT_SET_NO":999,"REV_AT_EPOCH":3338,"BSTAR":0.00039828,"MEAN_MOTION_DOT":0.00055729,"MEAN_MOTION_DDOT":0},{"OBJECT_NAME":"STARLINK-2013","OBJECT_ID":"2021-012S","EPOCH":"2021-09-11T00:00:00.999648","MEAN_MOTION":15.06406331,"ECCENTRICITY":0.0006273,"INCLINATION":53.0525,"RA_OF_ASC_NODE":216.9495,"ARG_OF_PERICENTER":204.0983,"MEAN_ANOMALY":351.929,"EPHEMERIS_TYPE":0,"CLASSIFICATION_TYPE":"U","NORAD_CAT_ID":47636,"ELEMENT_SET_NO":999,"REV_AT_EPOCH":357,"BSTAR":-0.0013164,"MEAN_MOTION_DOT":-0.00019849,"MEAN_MOTION_DDOT":0}]
